{
    "links": {
        "self": "http://www.neowsapp.com/rest/v1/neo/3617389?api_key=iIulBulltgU6a56xZRHN4H3l9WmuAYTsLGpBGhQ2"
    },
    "id": "3617389",
    "neo_reference_id": "3617389",
    "name": "(2012 VG46)",
    "designation": "2012 VG46",
    "nasa_jpl_url": "http://ssd.jpl.nasa.gov/sbdb.cgi?sstr=3617389",
    "absolute_magnitude_h": 23.3,
    "estimated_diameter": {
        "kilometers": {
            "estimated_diameter_min": 0.058150704,
            "estimated_diameter_max": 0.130028927
        },
        "meters": {
            "estimated_diameter_min": 58.1507039646,
            "estimated_diameter_max": 130.0289270043
        },
        "miles": {
            "estimated_diameter_min": 0.0361331611,
            "estimated_diameter_max": 0.0807962044
        },
        "feet": {
            "estimated_diameter_min": 190.7831555951,
            "estimated_diameter_max": 426.6041048727
        }
    },
    "is_potentially_hazardous_asteroid": false,
    "close_approach_data": [
        {
            "close_approach_date": "2012-11-11",
            "close_approach_date_full": "2012-Nov-11 05:17",
            "epoch_date_close_approach": 1352611020000,
            "relative_velocity": {
                "kilometers_per_second": "15.7614145519",
                "kilometers_per_hour": "56741.0923866604",
                "miles_per_hour": "35256.7082110335"
            },
            "miss_distance": {
                "astronomical": "0.0656823134",
                "lunar": "25.5504199126",
                "kilometers": "9825934.181312458",
                "miles": "6105552.3820416004"
            },
            "orbiting_body": "Earth"
        },
        {
            "close_approach_date": "2014-10-21",
            "close_approach_date_full": "2014-Oct-21 17:52",
            "epoch_date_close_approach": 1413913920000,
            "relative_velocity": {
                "kilometers_per_second": "19.2819889297",
                "kilometers_per_hour": "69415.1601469506",
                "miles_per_hour": "43131.8810368649"
            },
            "miss_distance": {
                "astronomical": "0.4184371653",
                "lunar": "162.7720573017",
                "kilometers": "62597308.657717911",
                "miles": "38896163.9608167318"
            },
            "orbiting_body": "Earth"
        }
    ],
    "orbital_data": {
        "orbit_id": "9",
        "orbit_determination_date": "2017-04-06 08:48:04",
        "first_observation_date": "2012-11-12",
        "last_observation_date": "2012-11-20",
        "data_arc_in_days": 8,
        "observations_used": 54,
        "orbit_uncertainty": "8",
        "minimum_orbit_intersection": ".0507583",
        "jupiter_tisserand_invariant": "4.271",
        "epoch_osculation": "2456245.5",
        "eccentricity": ".3281152190518245",
        "semi_major_axis": "1.549445969427639",
        "inclination": "27.73087730507879",
        "ascending_node_longitude": "227.459821124472",
        "orbital_period": "704.4709383085401",
        "perihelion_distance": "1.041049165759923",
        "perihelion_argument": "178.1653904565226",
        "aphelion_distance": "2.057842773095356",
        "perihelion_time": "2456241.759830243666",
        "mean_anomaly": "1.911308244330335",
        "mean_motion": ".5110217901456274",
        "equinox": "J2000",
        "orbit_class": {
            "orbit_class_type": "AMO",
            "orbit_class_description": "Near-Earth asteroid orbits similar to that of 1221 Amor",
            "orbit_class_range": "1.017 AU < q (perihelion) < 1.3 AU"
        }
    },
    "is_sentry_object": false
}